[{"OBJECT_NAME":"STARLINK-35734","OBJECT_ID":"2025-244V","EPOCH":"2026-03-09T17:29:55.478112","MEAN_MOTION":15.30199472,"ECCENTRICITY":0.00010409,"INCLINATION":53.1576,"RA_OF_ASC_NODE":229.8587,"ARG_OF_PERICENTER":60.4989,"MEAN_ANOMALY":299.6116,"EPHEMERIS_TYPE":0,"CLASSIFICATION_TYPE":"U","NORAD_CAT_ID":66225,"ELEMENT_SET_NO":999,"REV_AT_EPOCH":2166,"BSTAR":0.00077581515,"MEAN_MOTION_DOT":0.00022688,"MEAN_MOTION_DDOT":0},{"OBJECT_NAME":"TRANSPORTER-1 OBJECT M","OBJECT_ID":"2021-006M","EPOCH":"2026-03-09T22:05:37.843296","MEAN_MOTION":15.3227845,"ECCENTRICITY":0.00102759,"INCLINATION":97.2377,"RA_OF_ASC_NODE":116.7915,"ARG_OF_PERICENTER":187.5492,"MEAN_ANOMALY":172.5597,"EPHEMERIS_TYPE":0,"CLASSIFICATION_TYPE":"U","NORAD_CAT_ID":47424,"ELEMENT_SET_NO":999,"REV_AT_EPOCH":28439,"BSTAR":0.00023985652,"MEAN_MOTION_DOT":7.411e-5,"MEAN_MOTION_DDOT":0}]
